{
  "norad_id": 46146,
  "name": "STARLINK-1608",
  "history": [
    {
      "epoch": "2026-03-28T15:36:05.977152Z",
      "apogee_km": 475.7814603077413,
      "perigee_km": 474.440964957349,
      "latitude_deg": -8.1973604792207e-06,
      "longitude_deg": 161.13471584153754,
      "height_km": 475.93719967534645,
      "semi_major_axis_km": 6853.248212632545,
      "eccentricity": 9.78e-05,
      "inclination_deg": 53.1575,
      "raan_deg": 221.2271,
      "arg_perigee_deg": 83.8128,
      "mean_anomaly_deg": 276.2984,
      "mean_motion_rev_day": 15.30234784
    }
  ]
}