{"fetched_at":"2026-03-29T16:36:15Z","count":15609,"tles":[{"name":"STARLINK-1608","line1":"1 46146U 20057AF  26087.65006918  .00016017  00000+0  55113-3 0  9995","line2":"2 46146  53.1575 221.2271 0000978  83.8128 276.2984 15.30234784309085","category":"Starlink"}]}